NORAD_CAT_ID,OBJECT_NAME,OBJECT_TYPE,EPOCH,MEAN_MOTION,ECCENTRICITY,INCLINATION,RA_OF_ASC_NODE,ARG_OF_PERICENTER,MEAN_ANOMALY,BSTAR,MEAN_MOTION_DOT,MEAN_MOTION_DDOT,TLE_LINE0,TLE_LINE1,TLE_LINE2,SEMIMAJOR_AXIS,PERIOD,APOGEE,PERIGEE,DECAYED
54808.0,STARLINK-5413,PAYLOAD,2023-08-24 08:56:29,15.08843144,0.0001436,53.2162,221.7161,94.661,265.4546,4.2603e-05,3.9e-06,0.0,0 STARLINK-5413,1 54808U 22175BC  23236.37256021  .00000390  00000-0  42603-4 0  9995,2 54808  53.2162 221.7161 0001436  94.6610 265.4546 15.08843144 40190,6917.871,95.437,540.729,538.742,0.0
54808.0,STARLINK-5413,PAYLOAD,2023-08-25 04:01:07,15.08838482,0.0001388,53.2168,218.1455,112.822,247.2919,3.115e-06,-2.38e-06,0.0,0 STARLINK-5413,1 54808U 22175BC  23237.16744425 -.00000238  00000-0  31150-5 0  9991,2 54808  53.2168 218.1455 0001388 112.8220 247.2919 15.08838482 38152,6917.885,95.438,540.71,538.79,0.0
54808.0,STARLINK-5413,PAYLOAD,2023-08-25 10:22:39,15.08839223,0.0001416,53.217,216.9565,108.1858,251.9289,1.1655e-05,-1.02e-06,0.0,0 STARLINK-5413,1 54808U 22175BC  23237.43240416 -.00000102  00000-0  11655-4 0  9999,2 54808  53.2170 216.9565 0001416 108.1858 251.9289 15.08839223 40351,6917.883,95.438,540.727,538.768,0.0
54808.0,STARLINK-5413,PAYLOAD,2023-08-25 21:30:19,15.08860884,0.0001461,53.2167,214.8753,96.2114,263.9045,0.00018262,2.621e-05,0.0,0 STARLINK-5413,1 54808U 22175BC  23237.89606185  .00002621  00000-0  18262-3 0  9995,2 54808  53.2167 214.8753 0001461  96.2114 263.9045 15.08860884 40423,6917.817,95.436,540.692,538.671,0.0
54808.0,STARLINK-5413,PAYLOAD,2023-08-26 00:40:55,15.08993037,0.0002162,53.2171,214.2795,116.4474,243.674,0.001253,0.00019794,0.0,0 STARLINK-5413,1 54808U 22175BC  23238.02842054  .00019794  00000-0  12530-2 0  9998,2 54808  53.2171 214.2795 0002162 116.4474 243.6740 15.08993037 38286,6917.413,95.428,540.773,537.782,0.0
54808.0,STARLINK-5413,PAYLOAD,2023-08-26 05:26:55,15.09089225,0.0001657,53.217,213.3866,123.1095,237.0056,0.001976,0.00031517,0.0,0 STARLINK-5413,1 54808U 22175BC  23238.22703309  .00031517  00000-0  19760-2 0  9998,2 54808  53.2170 213.3866 0001657 123.1095 237.0056 15.09089225 38313,6917.119,95.422,540.13,537.838,0.0
54808.0,STARLINK-5413,PAYLOAD,2023-08-27 02:06:12,15.09413007,0.0003733,53.2167,209.519,18.4967,341.616,0.0038646,0.00062751,0.0,0 STARLINK-5413,1 54808U 22175BC  23239.08764091  .00062751  00000-0  38646-2 0  9996,2 54808  53.2167 209.5190 0003733  18.4967 341.6160 15.09413007 38448,6916.129,95.401,540.576,535.413,0.0
54808.0,STARLINK-5413,PAYLOAD,2023-08-27 14:00:01,15.10469717,9.7e-05,53.2145,207.2917,90.0715,86.0866,-0.0019084,-0.00031916,0.0,0 STARLINK-5413,1 54808U 22175BC  23239.58334491 -.00031916  00000-0 -19084-2 0  9994,2 54808  53.2145 207.2917 0000970  90.0715  86.0866 15.10469717 38515,6912.903,95.335,535.439,534.098,0.0
54808.0,STARLINK-5413,PAYLOAD,2023-08-27 22:00:00,15.10459964,0.0001034,53.2147,205.7909,100.4533,89.2412,0.00058206,9.406e-05,0.0,0 STARLINK-5413,1 54808U 22175BC  23239.91667824  .00009406  00000-0  58206-3 0  9997,2 54808  53.2147 205.7909 0001034 100.4533  89.2412 15.10459964  5864,6912.933,95.335,535.513,534.083,0.0
54808.0,STARLINK-5413,PAYLOAD,2023-08-28 06:00:02,15.10480824,0.0001009,53.2145,204.2924,83.9449,119.3983,-0.0010226,-0.00017277,0.0,0 STARLINK-5413,1 54808U 22175BC  23240.25002315 -.00017277  00000-0 -10226-2 0  9990,2 54808  53.2145 204.2924 0001009  83.9449 119.3983 15.10480824 38623,6912.87,95.334,535.432,534.037,0.0
54808.0,STARLINK-5413,PAYLOAD,2023-08-28 22:00:00,15.10487724,0.0001032,53.2145,201.2904,95.6885,134.7074,0.00064116,0.000104,0.0,0 STARLINK-5413,1 54808U 22175BC  23240.91667824  .00010400  00000-0  64116-3 0  9992,2 54808  53.2145 201.2904 0001032  95.6885 134.7074 15.10487724 38727,6912.849,95.333,535.427,534.0,0.0
54808.0,STARLINK-5413,PAYLOAD,2023-08-29 14:00:01,15.10485365,9.82e-05,53.2144,198.2903,78.8711,178.6574,-0.0027699,-0.0004612,0.0,0 STARLINK-5413,1 54808U 22175BC  23241.58334491 -.00046120  00000-0 -27699-2 0  9991,2 54808  53.2144 198.2903 0000982  78.8711 178.6574 15.10485365 38826,6912.856,95.334,535.4,534.042,0.0
54808.0,STARLINK-5413,PAYLOAD,2023-08-29 22:00:00,15.1055982,0.0001219,53.2147,196.7898,90.615,180.4552,-0.031872,-0.00501611,0.0,0 STARLINK-5413,1 54808U 22175BC  23241.91667824 -.00501611  00000-0 -31872-1 0  9995,2 54808  53.2147 196.7898 0001219  90.6150 180.4552 15.10559820 38878,6912.629,95.329,535.336,533.651,0.0
54808.0,STARLINK-5413,PAYLOAD,2023-08-30 22:00:00,15.09566742,0.0001486,53.2153,192.2922,86.1095,224.0849,-0.03155,-0.00484106,0.0,0 STARLINK-5413,1 54808U 22175BC  23242.91667824 -.00484106  00000-0 -31550-1 0  9998,2 54808  53.2153 192.2922 0001486  86.1095 224.0849 15.09566742 39029,6915.66,95.392,538.553,536.497,0.0
54808.0,STARLINK-5413,PAYLOAD,2023-08-31 00:00:02,15.09487311,0.0001487,53.2153,191.9183,80.0704,323.2894,-0.032426,-0.00495768,0.0,0 STARLINK-5413,1 54808U 22175BC  23243.00002315 -.00495768  00000-0 -32426-1 0  9996,2 54808  53.2153 191.9183 0001487  80.0704 323.2894 15.09487311  5776,6915.903,95.397,538.796,536.739,0.0
54808.0,STARLINK-5413,PAYLOAD,2023-08-31 14:00:01,15.08853289,0.0001491,53.2157,189.2979,79.0256,255.2986,-0.0025902,-0.0004129,0.0,0 STARLINK-5413,1 54808U 22175BC  23243.58334491 -.00041290  00000-0 -25902-2 0  9991,2 54808  53.2157 189.2979 0001491  79.0256 255.2986 15.08853289 39120,6917.84,95.437,540.736,538.673,0.0
54808.0,STARLINK-5413,PAYLOAD,2023-08-31 22:00:01,15.0884694,0.0001547,53.216,187.8013,82.8544,263.1207,-0.00067671,-0.00011044,0.0,0 STARLINK-5413,1 54808U 22175BC  23243.91668981 -.00011044  00000-0 -67671-3 0  9996,2 54808  53.2160 187.8013 0001547  82.8544 263.1207 15.08846940  5810,6917.859,95.437,540.794,538.654,0.0
54808.0,STARLINK-5413,PAYLOAD,2023-09-01 06:00:00,15.08825541,0.0001578,53.2161,186.3066,79.5225,277.9999,0.00051771,7.958e-05,0.0,0 STARLINK-5413,1 54808U 22175BC  23244.25001157  .00007958  00000-0  51771-3 0  9991,2 54808  53.2161 186.3066 0001578  79.5225 277.9999 15.08825541 39223,6917.925,95.438,540.881,538.698,0.0
54808.0,STARLINK-5413,PAYLOAD,2023-09-01 14:00:01,15.08834078,0.0001498,53.2163,184.8087,87.9359,281.1748,0.00072897,0.00011331,0.0,0 STARLINK-5413,1 54808U 22175BC  23244.58334491  .00011331  00000-0  72897-3 0  9999,2 54808  53.2163 184.8087 0001498  87.9359 281.1748 15.08834078  5815,6917.898,95.438,540.8,538.727,0.0
54808.0,STARLINK-5413,PAYLOAD,2023-09-01 22:00:00,15.08875056,0.00015,53.2166,183.3125,93.7253,286.9702,-0.0018816,-0.00030137,0.0,0 STARLINK-5413,1 54808U 22175BC  23244.91667824 -.00030137  00000-0 -18816-2 0  9992,2 54808  53.2166 183.3125 0001500  93.7253 286.9702 15.08875056  5866,6917.773,95.435,540.676,538.601,0.0
54808.0,STARLINK-5413,PAYLOAD,2023-09-02 14:00:01,15.08818381,0.0001417,53.2165,180.3197,99.6386,304.2404,0.0010025,0.00015693,0.0,0 STARLINK-5413,1 54808U 22175BC  23245.58334491  .00015693  00000-0  10025-2 0  9999,2 54808  53.2165 180.3197 0001417  99.6386 304.2404 15.08818381 39420,6917.946,95.439,540.792,538.831,0.0
54808.0,STARLINK-5413,PAYLOAD,2023-09-02 22:00:00,15.08873066,0.0001427,53.2166,178.8237,99.383,316.0753,-0.0015174,-0.00024378,0.0,0 STARLINK-5413,1 54808U 22175BC  23245.91667824 -.00024378  00000-0 -15174-2 0  9997,2 54808  53.2166 178.8237 0001427  99.3830 316.0753 15.08873066  5815,6917.779,95.435,540.631,538.657,0.0
54808.0,STARLINK-5413,PAYLOAD,2023-09-03 02:31:29,15.08842331,0.0001587,53.2177,177.9801,92.6385,267.4789,7.7225e-05,9.41e-06,0.0,0 STARLINK-5413,1 54808U 22175BC  23246.10520811  .00000941  00000-0  77225-4 0  9998,2 54808  53.2177 177.9801 0001587  92.6385 267.4789 15.08842331 39504,6917.873,95.437,540.836,538.64,0.0
54808.0,STARLINK-5413,PAYLOAD,2023-09-03 12:03:48,15.08847458,0.0001459,53.2159,176.1926,91.154,268.9619,9.4508e-05,1.217e-05,0.0,0 STARLINK-5413,1 54808U 22175BC  23246.50264326  .00001217  00000-0  94508-4 0  9998,2 54808  53.2159 176.1926 0001459  91.1540 268.9619 15.08847458 41728,6917.858,95.437,540.732,538.713,0.0
54808.0,STARLINK-5413,PAYLOAD,2023-09-04 02:22:18,15.0882552,0.0001646,53.2173,173.5179,99.6877,260.4301,8.7695e-06,-1.48e-06,0.0,0 STARLINK-5413,1 54808U 22175BC  23247.09882504 -.00000148  00000-0  87695-5 0  9990,2 54808  53.2173 173.5179 0001646  99.6877 260.4301 15.08825520 39659,6917.925,95.438,540.928,538.651,0.0
54808.0,STARLINK-5413,PAYLOAD,2023-09-04 11:54:37,15.0882887,0.0001331,53.2171,171.7328,90.0022,270.1123,8.4376e-05,1.055e-05,0.0,0 STARLINK-5413,1 54808U 22175BC  23247.49626371  .00001055  00000-0  84376-4 0  9991,2 54808  53.2171 171.7328 0001331  90.0022 270.1123 15.08828870 41879,6917.914,95.438,540.7,538.859,0.0
54808.0,STARLINK-5413,PAYLOAD,2023-09-05 05:23:51,15.08845032,0.0001345,53.2175,168.4609,93.0321,267.0825,7.9778e-05,9.82e-06,0.0,0 STARLINK-5413,1 54808U 22175BC  23248.22489614  .00000982  00000-0  79778-4 0  9998,2 54808  53.2175 168.4609 0001345  93.0321 267.0825 15.08845032 39823,6917.865,95.437,540.66,538.8,0.0
54808.0,STARLINK-5413,PAYLOAD,2023-09-06 02:03:52,15.0883961,0.0001359,53.2172,164.5954,88.6292,271.4856,0.00013446,1.853e-05,0.0,0 STARLINK-5413,1 54808U 22175BC  23249.08601941  .00001853  00000-0  13446-3 0  9999,2 54808  53.2172 164.5954 0001359  88.6292 271.4856 15.08839610 39954,6917.882,95.438,540.687,538.806,0.0
54808.0,STARLINK-5413,PAYLOAD,2023-09-07 03:30:02,15.08845847,0.0001408,53.2172,159.8371,92.276,267.8393,2.215e-05,6.5e-07,0.0,0 STARLINK-5413,1 54808U 22175BC  23250.14585797  .00000065  00000-0  22150-4 0  9995,2 54808  53.2172 159.8371 0001408  92.2760 267.8393 15.08845847 40114,6917.863,95.437,540.702,538.753,0.0
54808.0,STARLINK-5413,PAYLOAD,2023-09-07 17:48:30,15.08837181,0.0001436,53.2172,157.1616,92.4969,267.6187,3.2577e-05,2.31e-06,0.0,0 STARLINK-5413,1 54808U 22175BC  23250.74202374  .00000231  00000-0  32577-4 0  9997,2 54808  53.2172 157.1616 0001436  92.4969 267.6187 15.08837181 40202,6917.889,95.438,540.747,538.761,0.0
